{
  "links" : {
    "next" : "https://api.nasa.gov/neo/rest/v1/feed?start_date=1997-08-23&end_date=1997-08-23&detailed=true&api_key=t0TVs3DtDT2H8Oy2Zy8m2eVrNsAVKAexjcZXUckd",
    "prev" : "https://api.nasa.gov/neo/rest/v1/feed?start_date=1997-08-21&end_date=1997-08-21&detailed=true&api_key=t0TVs3DtDT2H8Oy2Zy8m2eVrNsAVKAexjcZXUckd",
    "self" : "https://api.nasa.gov/neo/rest/v1/feed?start_date=1997-08-22&end_date=1997-08-22&detailed=true&api_key=t0TVs3DtDT2H8Oy2Zy8m2eVrNsAVKAexjcZXUckd"
  },
  "element_count" : 5,
  "near_earth_objects" : {
    "1997-08-22" : [ {
      "links" : {
        "self" : "https://api.nasa.gov/neo/rest/v1/neo/3249704?api_key=t0TVs3DtDT2H8Oy2Zy8m2eVrNsAVKAexjcZXUckd"
      },
      "neo_reference_id" : "3249704",
      "name" : "(2004 PD97)",
      "nasa_jpl_url" : "http://ssd.jpl.nasa.gov/sbdb.cgi?sstr=3249704",
      "absolute_magnitude_h" : 21.6,
      "estimated_diameter" : {
        "kilometers" : {
          "estimated_diameter_min" : 0.1272198785,
          "estimated_diameter_max" : 0.2844722965
        },
        "meters" : {
          "estimated_diameter_min" : 127.2198785394,
          "estimated_diameter_max" : 284.4722965033
        },
        "miles" : {
          "estimated_diameter_min" : 0.0790507431,
          "estimated_diameter_max" : 0.1767628354
        },
        "feet" : {
          "estimated_diameter_min" : 417.3880663071,
          "estimated_diameter_max" : 933.3080892598
        }
      },
      "is_potentially_hazardous_asteroid" : false,
      "close_approach_data" : [ {
        "close_approach_date" : "1997-08-22",
        "epoch_date_close_approach" : 872233200000,
        "relative_velocity" : {
          "kilometers_per_second" : "11.6411741883",
          "kilometers_per_hour" : "41908.2270777713",
          "miles_per_hour" : "26040.1425417407"
        },
        "miss_distance" : {
          "astronomical" : "0.3638698674",
          "lunar" : "141.5453796387",
          "kilometers" : "54434160",
          "miles" : "33823820"
        },
        "orbiting_body" : "Earth"
      } ],
      "orbital_data" : {
        "orbit_id" : "11",
        "orbit_determination_date" : "2017-04-06 09:12:28",
        "orbit_uncertainty" : "6",
        "minimum_orbit_intersection" : ".144426",
        "jupiter_tisserand_invariant" : "3.417",
        "epoch_osculation" : "2458000.5",
        "eccentricity" : ".4934999349959612",
        "semi_major_axis" : "2.285844837509016",
        "inclination" : "8.20938289410908",
        "ascending_node_longitude" : "139.620751692133",
        "orbital_period" : "1262.317339358663",
        "perihelion_distance" : "1.157780558787463",
        "perihelion_argument" : "173.6357248413524",
        "aphelion_distance" : "3.413909116230569",
        "perihelion_time" : "2458262.457582287861",
        "mean_anomaly" : "285.2923756307247",
        "mean_motion" : ".2851897765920752",
        "equinox" : "J2000"
      }
    }, {
      "links" : {
        "self" : "https://api.nasa.gov/neo/rest/v1/neo/2303262?api_key=t0TVs3DtDT2H8Oy2Zy8m2eVrNsAVKAexjcZXUckd"
      },
      "neo_reference_id" : "2303262",
      "name" : "303262 (2004 RJ84)",
      "nasa_jpl_url" : "http://ssd.jpl.nasa.gov/sbdb.cgi?sstr=2303262",
      "absolute_magnitude_h" : 18.6,
      "estimated_diameter" : {
        "kilometers" : {
          "estimated_diameter_min" : 0.5064714588,
          "estimated_diameter_max" : 1.1325046106
        },
        "meters" : {
          "estimated_diameter_min" : 506.4714588346,
          "estimated_diameter_max" : 1132.5046106177
        },
        "miles" : {
          "estimated_diameter_min" : 0.3147066768,
          "estimated_diameter_max" : 0.7037055224
        },
        "feet" : {
          "estimated_diameter_min" : 1661.651821003,
          "estimated_diameter_max" : 3715.566426699
        }
      },
      "is_potentially_hazardous_asteroid" : false,
      "close_approach_data" : [ {
        "close_approach_date" : "1997-08-22",
        "epoch_date_close_approach" : 872233200000,
        "relative_velocity" : {
          "kilometers_per_second" : "10.0949824276",
          "kilometers_per_hour" : "36341.936739455",
          "miles_per_hour" : "22581.4661923575"
        },
        "miss_distance" : {
          "astronomical" : "0.3935236787",
          "lunar" : "153.0807189941",
          "kilometers" : "58870308",
          "miles" : "36580312"
        },
        "orbiting_body" : "Earth"
      } ],
      "orbital_data" : {
        "orbit_id" : "85",
        "orbit_determination_date" : "2017-04-06 09:24:05",
        "orbit_uncertainty" : "0",
        "minimum_orbit_intersection" : ".20526",
        "jupiter_tisserand_invariant" : "5.602",
        "epoch_osculation" : "2458000.5",
        "eccentricity" : ".3106744462129131",
        "semi_major_axis" : "1.09477187385522",
        "inclination" : "13.2335190903779",
        "ascending_node_longitude" : "342.9645183410994",
        "orbital_period" : "418.3924835397528",
        "perihelion_distance" : ".7546542282157764",
        "perihelion_argument" : "189.761641034415",
        "aphelion_distance" : "1.434889519494664",
        "perihelion_time" : "2458046.383885622591",
        "mean_anomaly" : "320.5198480518033",
        "mean_motion" : ".860436107633361",
        "equinox" : "J2000"
      }
    }, {
      "links" : {
        "self" : "https://api.nasa.gov/neo/rest/v1/neo/2423709?api_key=t0TVs3DtDT2H8Oy2Zy8m2eVrNsAVKAexjcZXUckd"
      },
      "neo_reference_id" : "2423709",
      "name" : "423709 (2006 BQ6)",
      "nasa_jpl_url" : "http://ssd.jpl.nasa.gov/sbdb.cgi?sstr=2423709",
      "absolute_magnitude_h" : 19.7,
      "estimated_diameter" : {
        "kilometers" : {
          "estimated_diameter_min" : 0.3051792326,
          "estimated_diameter_max" : 0.6824015094
        },
        "meters" : {
          "estimated_diameter_min" : 305.1792325939,
          "estimated_diameter_max" : 682.4015094011
        },
        "miles" : {
          "estimated_diameter_min" : 0.1896295249,
          "estimated_diameter_max" : 0.4240245083
        },
        "feet" : {
          "estimated_diameter_min" : 1001.2442334633,
          "estimated_diameter_max" : 2238.8501681036
        }
      },
      "is_potentially_hazardous_asteroid" : true,
      "close_approach_data" : [ {
        "close_approach_date" : "1997-08-22",
        "epoch_date_close_approach" : 872233200000,
        "relative_velocity" : {
          "kilometers_per_second" : "20.6038105111",
          "kilometers_per_hour" : "74173.7178397973",
          "miles_per_hour" : "46088.6637321785"
        },
        "miss_distance" : {
          "astronomical" : "0.3250924477",
          "lunar" : "126.4609603882",
          "kilometers" : "48633136",
          "miles" : "30219230"
        },
        "orbiting_body" : "Earth"
      } ],
      "orbital_data" : {
        "orbit_id" : "94",
        "orbit_determination_date" : "2017-04-06 09:21:04",
        "orbit_uncertainty" : "0",
        "minimum_orbit_intersection" : ".00934325",
        "jupiter_tisserand_invariant" : "4.483",
        "epoch_osculation" : "2458000.5",
        "eccentricity" : ".4047398183080834",
        "semi_major_axis" : "1.471885136452388",
        "inclination" : "12.99600670892976",
        "ascending_node_longitude" : "307.6698583462328",
        "orbital_period" : "652.2428190701611",
        "perihelion_distance" : ".8761546137542797",
        "perihelion_argument" : "304.7345249222057",
        "aphelion_distance" : "2.067615659150496",
        "perihelion_time" : "2457816.608311014758",
        "mean_anomaly" : "101.4974885105876",
        "mean_motion" : ".551941684100435",
        "equinox" : "J2000"
      }
    } ]
  }
}